43578,IRIDIUM 159,2018,100.4,860.0,+,86.39,Active,1,LEO,USA,USA,Commercial/Government,Communications,Falcon,1 43578U 18061K   24285.80141240  .00000032  00000+0  44280-5 0  9991,2 43578  86.3943 313.0547 0002287  91.2813 268.8644 14.34214402325461,14.34214402,0.0002287,LEO
43922,IRIDIUM 180,2019,100.41,860.0,+,86.39,Active,1,LEO,USA,USA,Commercial/Government,Communications,Falcon,1 43922U 19002A   24285.31256993 -.00005323  00000+0 -19112-2 0  9991,2 43922  86.3942 250.0862 0001995  79.0494 281.0926 14.34172949301000,14.34172949,0.0001995,LEO
43923,IRIDIUM 176,2019,97.81,860.0,+,86.61,Active,1,LEO,USA,USA,Commercial/Government,Communications,Falcon,1 43923U 19002B   24285.88638046  .00002781  00000+0  43700-3 0  9991,2 43923  86.6065 249.8572 0002350  89.6066 270.5420 14.72255148309018,14.72255148,0.000235,LEO
43924,IRIDIUM 168,2019,100.4,860.0,+,86.39,Active,1,LEO,USA,USA,Commercial/Government,Communications,Falcon,1 43924U 19002C   24286.14340732  .00000652  00000+0  22589-3 0  9991,2 43924  86.3944 249.7982 0002272  85.3062 274.8394 14.34211998301100,14.34211998,0.0002272,LEO
43925,IRIDIUM 173,2019,100.4,860.0,+,86.39,Active,1,LEO,USA,USA,Commercial/Government,Communications,Falcon,1 43925U 19002D   24285.85164095  .00000057  00000+0  13449-4 0  9990,2 43925  86.3937 249.8352 0002398  80.0087 280.1380 14.34210820301055,14.3421082,0.0002398,LEO
43926,IRIDIUM 169,2019,100.1,860.0,+,86.42,Active,1,LEO,USA,USA,Commercial/Government,Communications,Falcon,1 43926U 19002E   24286.04857137  .00000761  00000+0  24238-3 0  9998,2 43926  86.4165 281.3995 0002193 136.8847 223.2524 14.38607972302074,14.38607972,0.0002193,LEO
43927,IRIDIUM 172,2019,100.4,860.0,+,86.39,Active,1,LEO,USA,USA,Commercial/Government,Communications,Falcon,1 43927U 19002F   24285.84530278  .00000925  00000+0  32303-3 0  9994,2 43927  86.3941 249.8430 0002416  85.8879 274.2593 14.34217515301050,14.34217515,0.0002416,LEO
43928,IRIDIUM 175,2019,97.81,860.0,+,86.15,Active,1,LEO,USA,USA,Commercial/Government,Communications,Falcon,1 43928U 19002G   24285.88088792  .00006725  00000+0  10620-2 0  9999,2 43928  86.1539 216.4395 0002810  99.8349 260.3185 14.72239658309007,14.72239658,0.000281,LEO
