<?xml version="1.0" encoding="UTF-8"?>
<ndm xmlns:xsi="http://www.w3.org/2001/XMLSchema-instance" xsi:noNamespaceSchemaLocation="https://sanaregistry.org/r/ndmxml_unqualified/ndmxml-2.0.0-master-2.0.xsd">
<omm id="CCSDS_OMM_VERS" version="2.0">
<header><CREATION_DATE/><ORIGINATOR/></header><body><segment><metadata><OBJECT_NAME>IRIDIUM 159</OBJECT_NAME><OBJECT_ID>2018-061K</OBJECT_ID><CENTER_NAME>EARTH</CENTER_NAME><REF_FRAME>TEME</REF_FRAME><TIME_SYSTEM>UTC</TIME_SYSTEM><MEAN_ELEMENT_THEORY>SGP4</MEAN_ELEMENT_THEORY></metadata><data><meanElements><EPOCH>2024-10-11T19:14:02.031360</EPOCH><MEAN_MOTION>14.34214402</MEAN_MOTION><ECCENTRICITY>.0002287</ECCENTRICITY><INCLINATION>86.3943</INCLINATION><RA_OF_ASC_NODE>313.0547</RA_OF_ASC_NODE><ARG_OF_PERICENTER>91.2813</ARG_OF_PERICENTER><MEAN_ANOMALY>268.8644</MEAN_ANOMALY></meanElements><tleParameters><EPHEMERIS_TYPE>0</EPHEMERIS_TYPE><CLASSIFICATION_TYPE>U</CLASSIFICATION_TYPE><NORAD_CAT_ID>43578</NORAD_CAT_ID><ELEMENT_SET_NO>999</ELEMENT_SET_NO><REV_AT_EPOCH>32546</REV_AT_EPOCH><BSTAR>.4428E-5</BSTAR><MEAN_MOTION_DOT>.32E-6</MEAN_MOTION_DOT><MEAN_MOTION_DDOT>0</MEAN_MOTION_DDOT></tleParameters></data></segment></body></omm>
<omm id="CCSDS_OMM_VERS" version="2.0">
<header><CREATION_DATE/><ORIGINATOR/></header><body><segment><metadata><OBJECT_NAME>IRIDIUM 180</OBJECT_NAME><OBJECT_ID>2019-002A</OBJECT_ID><CENTER_NAME>EARTH</CENTER_NAME><REF_FRAME>TEME</REF_FRAME><TIME_SYSTEM>UTC</TIME_SYSTEM><MEAN_ELEMENT_THEORY>SGP4</MEAN_ELEMENT_THEORY></metadata><data><meanElements><EPOCH>2024-10-11T07:30:06.041952</EPOCH><MEAN_MOTION>14.34172949</MEAN_MOTION><ECCENTRICITY>.0001995</ECCENTRICITY><INCLINATION>86.3942</INCLINATION><RA_OF_ASC_NODE>250.0862</RA_OF_ASC_NODE><ARG_OF_PERICENTER>79.0494</ARG_OF_PERICENTER><MEAN_ANOMALY>281.0926</MEAN_ANOMALY></meanElements><tleParameters><EPHEMERIS_TYPE>0</EPHEMERIS_TYPE><CLASSIFICATION_TYPE>U</CLASSIFICATION_TYPE><NORAD_CAT_ID>43922</NORAD_CAT_ID><ELEMENT_SET_NO>999</ELEMENT_SET_NO><REV_AT_EPOCH>30100</REV_AT_EPOCH><BSTAR>-.19112E-2</BSTAR><MEAN_MOTION_DOT>-.5323E-4</MEAN_MOTION_DOT><MEAN_MOTION_DDOT>0</MEAN_MOTION_DDOT></tleParameters></data></segment></body></omm>
<omm id="CCSDS_OMM_VERS" version="2.0">
<header><CREATION_DATE/><ORIGINATOR/></header><body><segment><metadata><OBJECT_NAME>IRIDIUM 176</OBJECT_NAME><OBJECT_ID>2019-002B</OBJECT_ID><CENTER_NAME>EARTH</CENTER_NAME><REF_FRAME>TEME</REF_FRAME><TIME_SYSTEM>UTC</TIME_SYSTEM><MEAN_ELEMENT_THEORY>SGP4</MEAN_ELEMENT_THEORY></metadata><data><meanElements><EPOCH>2024-10-11T21:16:23.271744</EPOCH><MEAN_MOTION>14.72255148</MEAN_MOTION><ECCENTRICITY>.000235</ECCENTRICITY><INCLINATION>86.6065</INCLINATION><RA_OF_ASC_NODE>249.8572</RA_OF_ASC_NODE><ARG_OF_PERICENTER>89.6066</ARG_OF_PERICENTER><MEAN_ANOMALY>270.5420</MEAN_ANOMALY></meanElements><tleParameters><EPHEMERIS_TYPE>0</EPHEMERIS_TYPE><CLASSIFICATION_TYPE>U</CLASSIFICATION_TYPE><NORAD_CAT_ID>43923</NORAD_CAT_ID><ELEMENT_SET_NO>999</ELEMENT_SET_NO><REV_AT_EPOCH>30901</REV_AT_EPOCH><BSTAR>.437E-3</BSTAR><MEAN_MOTION_DOT>.2781E-4</MEAN_MOTION_DOT><MEAN_MOTION_DDOT>0</MEAN_MOTION_DDOT></tleParameters></data></segment></body></omm>
<omm id="CCSDS_OMM_VERS" version="2.0">
<header><CREATION_DATE/><ORIGINATOR/></header><body><segment><metadata><OBJECT_NAME>IRIDIUM 168</OBJECT_NAME><OBJECT_ID>2019-002C</OBJECT_ID><CENTER_NAME>EARTH</CENTER_NAME><REF_FRAME>TEME</REF_FRAME><TIME_SYSTEM>UTC</TIME_SYSTEM><MEAN_ELEMENT_THEORY>SGP4</MEAN_ELEMENT_THEORY></metadata><data><meanElements><EPOCH>2024-10-12T03:26:30.392448</EPOCH><MEAN_MOTION>14.34211998</MEAN_MOTION><ECCENTRICITY>.0002272</ECCENTRICITY><INCLINATION>86.3944</INCLINATION><RA_OF_ASC_NODE>249.7982</RA_OF_ASC_NODE><ARG_OF_PERICENTER>85.3062</ARG_OF_PERICENTER><MEAN_ANOMALY>274.8394</MEAN_ANOMALY></meanElements><tleParameters><EPHEMERIS_TYPE>0</EPHEMERIS_TYPE><CLASSIFICATION_TYPE>U</CLASSIFICATION_TYPE><NORAD_CAT_ID>43924</NORAD_CAT_ID><ELEMENT_SET_NO>999</ELEMENT_SET_NO><REV_AT_EPOCH>30110</REV_AT_EPOCH><BSTAR>.22589E-3</BSTAR><MEAN_MOTION_DOT>.652E-5</MEAN_MOTION_DOT><MEAN_MOTION_DDOT>0</MEAN_MOTION_DDOT></tleParameters></data></segment></body></omm>
<omm id="CCSDS_OMM_VERS" version="2.0">
<header><CREATION_DATE/><ORIGINATOR/></header><body><segment><metadata><OBJECT_NAME>IRIDIUM 173</OBJECT_NAME><OBJECT_ID>2019-002D</OBJECT_ID><CENTER_NAME>EARTH</CENTER_NAME><REF_FRAME>TEME</REF_FRAME><TIME_SYSTEM>UTC</TIME_SYSTEM><MEAN_ELEMENT_THEORY>SGP4</MEAN_ELEMENT_THEORY></metadata><data><meanElements><EPOCH>2024-10-11T20:26:21.778080</EPOCH><MEAN_MOTION>14.34210820</MEAN_MOTION><ECCENTRICITY>.0002398</ECCENTRICITY><INCLINATION>86.3937</INCLINATION><RA_OF_ASC_NODE>249.8352</RA_OF_ASC_NODE><ARG_OF_PERICENTER>80.0087</ARG_OF_PERICENTER><MEAN_ANOMALY>280.1380</MEAN_ANOMALY></meanElements><tleParameters><EPHEMERIS_TYPE>0</EPHEMERIS_TYPE><CLASSIFICATION_TYPE>U</CLASSIFICATION_TYPE><NORAD_CAT_ID>43925</NORAD_CAT_ID><ELEMENT_SET_NO>999</ELEMENT_SET_NO><REV_AT_EPOCH>30105</REV_AT_EPOCH><BSTAR>.13449E-4</BSTAR><MEAN_MOTION_DOT>.57E-6</MEAN_MOTION_DOT><MEAN_MOTION_DDOT>0</MEAN_MOTION_DDOT></tleParameters></data></segment></body></omm>
<omm id="CCSDS_OMM_VERS" version="2.0">
<header><CREATION_DATE/><ORIGINATOR/></header><body><segment><metadata><OBJECT_NAME>IRIDIUM 169</OBJECT_NAME><OBJECT_ID>2019-002E</OBJECT_ID><CENTER_NAME>EARTH</CENTER_NAME><REF_FRAME>TEME</REF_FRAME><TIME_SYSTEM>UTC</TIME_SYSTEM><MEAN_ELEMENT_THEORY>SGP4</MEAN_ELEMENT_THEORY></metadata><data><meanElements><EPOCH>2024-10-12T01:09:56.566368</EPOCH><MEAN_MOTION>14.38607972</MEAN_MOTION><ECCENTRICITY>.0002193</ECCENTRICITY><INCLINATION>86.4165</INCLINATION><RA_OF_ASC_NODE>281.3995</RA_OF_ASC_NODE><ARG_OF_PERICENTER>136.8847</ARG_OF_PERICENTER><MEAN_ANOMALY>223.2524</MEAN_ANOMALY></meanElements><tleParameters><EPHEMERIS_TYPE>0</EPHEMERIS_TYPE><CLASSIFICATION_TYPE>U</CLASSIFICATION_TYPE><NORAD_CAT_ID>43926</NORAD_CAT_ID><ELEMENT_SET_NO>999</ELEMENT_SET_NO><REV_AT_EPOCH>30207</REV_AT_EPOCH><BSTAR>.24238E-3</BSTAR><MEAN_MOTION_DOT>.761E-5</MEAN_MOTION_DOT><MEAN_MOTION_DDOT>0</MEAN_MOTION_DDOT></tleParameters></data></segment></body></omm>
<omm id="CCSDS_OMM_VERS" version="2.0">
<header><CREATION_DATE/><ORIGINATOR/></header><body><segment><metadata><OBJECT_NAME>IRIDIUM 172</OBJECT_NAME><OBJECT_ID>2019-002F</OBJECT_ID><CENTER_NAME>EARTH</CENTER_NAME><REF_FRAME>TEME</REF_FRAME><TIME_SYSTEM>UTC</TIME_SYSTEM><MEAN_ELEMENT_THEORY>SGP4</MEAN_ELEMENT_THEORY></metadata><data><meanElements><EPOCH>2024-10-11T20:17:14.160192</EPOCH><MEAN_MOTION>14.34217515</MEAN_MOTION><ECCENTRICITY>.0002416</ECCENTRICITY><INCLINATION>86.3941</INCLINATION><RA_OF_ASC_NODE>249.8430</RA_OF_ASC_NODE><ARG_OF_PERICENTER>85.8879</ARG_OF_PERICENTER><MEAN_ANOMALY>274.2593</MEAN_ANOMALY></meanElements><tleParameters><EPHEMERIS_TYPE>0</EPHEMERIS_TYPE><CLASSIFICATION_TYPE>U</CLASSIFICATION_TYPE><NORAD_CAT_ID>43927</NORAD_CAT_ID><ELEMENT_SET_NO>999</ELEMENT_SET_NO><REV_AT_EPOCH>30105</REV_AT_EPOCH><BSTAR>.32303E-3</BSTAR><MEAN_MOTION_DOT>.925E-5</MEAN_MOTION_DOT><MEAN_MOTION_DDOT>0</MEAN_MOTION_DDOT></tleParameters></data></segment></body></omm>
<omm id="CCSDS_OMM_VERS" version="2.0">
<header><CREATION_DATE/><ORIGINATOR/></header><body><segment><metadata><OBJECT_NAME>IRIDIUM 175</OBJECT_NAME><OBJECT_ID>2019-002G</OBJECT_ID><CENTER_NAME>EARTH</CENTER_NAME><REF_FRAME>TEME</REF_FRAME><TIME_SYSTEM>UTC</TIME_SYSTEM><MEAN_ELEMENT_THEORY>SGP4</MEAN_ELEMENT_THEORY></metadata><data><meanElements><EPOCH>2024-10-11T21:08:28.716288</EPOCH><MEAN_MOTION>14.72239658</MEAN_MOTION><ECCENTRICITY>.000281</ECCENTRICITY><INCLINATION>86.1539</INCLINATION><RA_OF_ASC_NODE>216.4395</RA_OF_ASC_NODE><ARG_OF_PERICENTER>99.8349</ARG_OF_PERICENTER><MEAN_ANOMALY>260.3185</MEAN_ANOMALY></meanElements><tleParameters><EPHEMERIS_TYPE>0</EPHEMERIS_TYPE><CLASSIFICATION_TYPE>U</CLASSIFICATION_TYPE><NORAD_CAT_ID>43928</NORAD_CAT_ID><ELEMENT_SET_NO>999</ELEMENT_SET_NO><REV_AT_EPOCH>30900</REV_AT_EPOCH><BSTAR>.1062E-2</BSTAR><MEAN_MOTION_DOT>.6725E-4</MEAN_MOTION_DOT><MEAN_MOTION_DDOT>0</MEAN_MOTION_DDOT></tleParameters></data></segment></body></omm>

</ndm>
